{
  "type": "FeatureCollection",
  "features": [
    {
      "type": "Feature",
      "properties": {
        "norad_id": 30281,
        "name": "FENGYUN 1C DEB",
        "group": "fengyun-1c-debris",
        "lat": -63.42129949932915,
        "lon": 131.2680598169584,
        "alt_km": 845.4351307079278,
        "timestamp": "2025-12-05T04:52:15.567635+00:00",
        "meta_object_name": "FENGYUN 1C DEB",
        "meta_object_id": "1999-025YS",
        "meta_epoch": "2025-12-04T12:57:24.927840",
        "meta_mean_motion": 14.10464442,
        "meta_eccentricity": 0.0027829,
        "meta_inclination": 98.7563,
        "meta_ra_of_asc_node": 328.565,
        "meta_arg_of_pericenter": 261.0661,
        "meta_mean_anomaly": 218.7088,
        "meta_ephemeris_type": 0,
        "meta_classification_type": "U",
        "meta_norad_cat_id": 30281,
        "meta_element_set_no": 999,
        "meta_rev_at_epoch": 97105,
        "meta_bstar": 0.00034961,
        "meta_mean_motion_dot": 5.81e-06,
        "meta_mean_motion_ddot": 0,
        "tle_line1": "1 30281U 99025YS  25338.53987185  .00000581  00000+0  34961-3 0  9995",
        "tle_line2": "2 30281  98.7563 328.5650 0027829 261.0661 218.7088 14.10464442971059"
      },
      "geometry": {
        "type": "Point",
        "coordinates": [
          131.2680598169584,
          -63.42129949932915
        ]
      }
    },
    {
      "type": "Feature",
      "properties": {
        "norad_id": 30282,
        "name": "FENGYUN 1C DEB",
        "group": "fengyun-1c-debris",
        "lat": -70.07967074663584,
        "lon": 7.207512538449409,
        "alt_km": 868.137988903155,
        "timestamp": "2025-12-05T04:52:15.567644+00:00",
        "meta_object_name": "FENGYUN 1C DEB",
        "meta_object_id": "1999-025YT",
        "meta_epoch": "2025-12-04T14:28:14.784960",
        "meta_mean_motion": 14.12953103,
        "meta_eccentricity": 0.0210777,
        "meta_inclination": 98.5014,
        "meta_ra_of_asc_node": 342.261,
        "meta_arg_of_pericenter": 25.4084,
        "meta_mean_anomaly": 94.8126,
        "meta_ephemeris_type": 0,
        "meta_classification_type": "U",
        "meta_norad_cat_id": 30282,
        "meta_element_set_no": 999,
        "meta_rev_at_epoch": 97236,
        "meta_bstar": 0.00057692,
        "meta_mean_motion_dot": 1.286e-05,
        "meta_mean_motion_ddot": 0,
        "tle_line1": "1 30282U 99025YT  25338.60294890  .00001286  00000+0  57692-3 0  9997",
        "tle_line2": "2 30282  98.5014 342.2610 0210777  25.4084  94.8126 14.12953103972365"
      },
      "geometry": {
        "type": "Point",
        "coordinates": [
          7.207512538449409,
          -70.07967074663584
        ]
      }
    },
    {
      "type": "Feature",
      "properties": {
        "norad_id": 30283,
        "name": "FENGYUN 1C DEB",
        "group": "fengyun-1c-debris",
        "lat": 19.051641599424705,
        "lon": 156.18236796463276,
        "alt_km": 899.7018480032748,
        "timestamp": "2025-12-05T04:52:15.567653+00:00",
        "meta_object_name": "FENGYUN 1C DEB",
        "meta_object_id": "1999-025YU",
        "meta_epoch": "2025-12-04T13:16:44.084064",
        "meta_mean_motion": 14.01972037,
        "meta_eccentricity": 0.0185264,
        "meta_inclination": 98.8674,
        "meta_ra_of_asc_node": 332.4599,
        "meta_arg_of_pericenter": 65.9812,
        "meta_mean_anomaly": 55.3684,
        "meta_ephemeris_type": 0,
        "meta_classification_type": "U",
        "meta_norad_cat_id": 30283,
        "meta_element_set_no": 999,
        "meta_rev_at_epoch": 96576,
        "meta_bstar": 9.2992e-05,
        "meta_mean_motion_dot": 1.23e-06,
        "meta_mean_motion_ddot": 0,
        "tle_line1": "1 30283U 99025YU  25338.55328801  .00000123  00000+0  92992-4 0  9994",
        "tle_line2": "2 30283  98.8674 332.4599 0185264  65.9812  55.3684 14.01972037965760"
      },
      "geometry": {
        "type": "Point",
        "coordinates": [
          156.18236796463276,
          19.051641599424705
        ]
      }
    },
    {
      "type": "Feature",
      "properties": {
        "norad_id": 30284,
        "name": "FENGYUN 1C DEB",
        "group": "fengyun-1c-debris",
        "lat": 13.582218356339466,
        "lon": 45.521006490171,
        "alt_km": 809.2683350952284,
        "timestamp": "2025-12-05T04:52:15.567662+00:00",
        "meta_object_name": "FENGYUN 1C DEB",
        "meta_object_id": "1999-025YV",
        "meta_epoch": "2025-12-03T04:19:25.627872",
        "meta_mean_motion": 14.28646835,
        "meta_eccentricity": 0.00382629,
        "meta_inclination": 98.7221,
        "meta_ra_of_asc_node": 45.6247,
        "meta_arg_of_pericenter": 136.064,
        "meta_mean_anomaly": 280.4954,
        "meta_ephemeris_type": 0,
        "meta_classification_type": "U",
        "meta_norad_cat_id": 30284,
        "meta_element_set_no": 999,
        "meta_rev_at_epoch": 97379,
        "meta_bstar": 0.002047299,
        "meta_mean_motion_dot": 5.143e-05,
        "meta_mean_motion_ddot": 0,
        "tle_line1": "1 30284U 99025YV  25337.18015773  .00005143  00000+0  20473-2 0  9994",
        "tle_line2": "2 30284  98.7221  45.6247 0038262 136.0640 280.4954 14.28646835973791"
      },
      "geometry": {
        "type": "Point",
        "coordinates": [
          45.521006490171,
          13.582218356339466
        ]
      }
    },
    {
      "type": "Feature",
      "properties": {
        "norad_id": 30286,
        "name": "FENGYUN 1C DEB",
        "group": "fengyun-1c-debris",
        "lat": 21.465142518865918,
        "lon": 167.2370444747301,
        "alt_km": 803.4159393264827,
        "timestamp": "2025-12-05T04:52:15.567671+00:00",
        "meta_object_name": "FENGYUN 1C DEB",
        "meta_object_id": "1999-025YX",
        "meta_epoch": "2025-12-04T11:51:05.531328",
        "meta_mean_motion": 14.12719242,
        "meta_eccentricity": 0.0064382,
        "meta_inclination": 98.6901,
        "meta_ra_of_asc_node": 343.1013,
        "meta_arg_of_pericenter": 156.0199,
        "meta_mean_anomaly": 357.5566,
        "meta_ephemeris_type": 0,
        "meta_classification_type": "U",
        "meta_norad_cat_id": 30286,
        "meta_element_set_no": 999,
        "meta_rev_at_epoch": 97342,
        "meta_bstar": 0.00016435,
        "meta_mean_motion_dot": 2.69e-06,
        "meta_mean_motion_ddot": 0,
        "tle_line1": "1 30286U 99025YX  25338.49381402  .00000269  00000+0  16435-3 0  9994",
        "tle_line2": "2 30286  98.6901 343.1013 0064382 156.0199 357.5566 14.12719242973428"
      },
      "geometry": {
        "type": "Point",
        "coordinates": [
          167.2370444747301,
          21.465142518865918
        ]
      }
    },
    {
      "type": "Feature",
      "properties": {
        "norad_id": 30287,
        "name": "FENGYUN 1C DEB",
        "group": "fengyun-1c-debris",
        "lat": 45.33828073599514,
        "lon": -156.96795820338414,
        "alt_km": 1049.793524903037,
        "timestamp": "2025-12-05T04:52:15.567680+00:00",
        "meta_object_name": "FENGYUN 1C DEB",
        "meta_object_id": "1999-025YY",
        "meta_epoch": "2025-12-04T02:10:53.092992",
        "meta_mean_motion": 13.68551111,
        "meta_eccentricity": 0.04138186,
        "meta_inclination": 98.6387,
        "meta_ra_of_asc_node": 13.184,
        "meta_arg_of_pericenter": 35.3081,
        "meta_mean_anomaly": 17.9733,
        "meta_ephemeris_type": 0,
        "meta_classification_type": "U",
        "meta_norad_cat_id": 30287,
        "meta_element_set_no": 999,
        "meta_rev_at_epoch": 93740,
        "meta_bstar": 0.0015990957,
        "meta_mean_motion_dot": 2.462e-05,
        "meta_mean_motion_ddot": 0,
        "tle_line1": "1 30287U 99025YY  25338.09089228  .00002462  00000+0  15991-2 0  9994",
        "tle_line2": "2 30287  98.6387  13.1840 0413818  35.3081  17.9733 13.68551111937400"
      },
      "geometry": {
        "type": "Point",
        "coordinates": [
          -156.96795820338414,
          45.33828073599514
        ]
      }
    },
    {
      "type": "Feature",
      "properties": {
        "norad_id": 30288,
        "name": "FENGYUN 1C DEB",
        "group": "fengyun-1c-debris",
        "lat": 62.772681262938306,
        "lon": -100.9998555245507,
        "alt_km": 786.6029086165381,
        "timestamp": "2025-12-05T04:52:15.567689+00:00",
        "meta_object_name": "FENGYUN 1C DEB",
        "meta_object_id": "1999-025YZ",
        "meta_epoch": "2025-12-04T03:28:16.018176",
        "meta_mean_motion": 14.32454133,
        "meta_eccentricity": 0.00201691,
        "meta_inclination": 99.3963,
        "meta_ra_of_asc_node": 59.0809,
        "meta_arg_of_pericenter": 348.4881,
        "meta_mean_anomaly": 72.3409,
        "meta_ephemeris_type": 0,
        "meta_classification_type": "U",
        "meta_norad_cat_id": 30288,
        "meta_element_set_no": 999,
        "meta_rev_at_epoch": 97446,
        "meta_bstar": 0.0036707116,
        "meta_mean_motion_dot": 9.924e-05,
        "meta_mean_motion_ddot": 0,
        "tle_line1": "1 30288U 99025YZ  25338.14462984  .00009924  00000+0  36707-2 0  9993",
        "tle_line2": "2 30288  99.3963  59.0809 0020169 348.4881  72.3409 14.32454133974462"
      },
      "geometry": {
        "type": "Point",
        "coordinates": [
          -100.9998555245507,
          62.772681262938306
        ]
      }
    }
  ]
}